{
    "links": {
        "self": "http://www.neowsapp.com/rest/v1/neo/3726788?api_key=iIulBulltgU6a56xZRHN4H3l9WmuAYTsLGpBGhQ2"
    },
    "id": "3726788",
    "neo_reference_id": "3726788",
    "name": "(2015 RG2)",
    "designation": "2015 RG2",
    "nasa_jpl_url": "http://ssd.jpl.nasa.gov/sbdb.cgi?sstr=3726788",
    "absolute_magnitude_h": 26.7,
    "estimated_diameter": {
        "kilometers": {
            "estimated_diameter_min": 0.0121494041,
            "estimated_diameter_max": 0.0271668934
        },
        "meters": {
            "estimated_diameter_min": 12.14940408,
            "estimated_diameter_max": 27.1668934089
        },
        "miles": {
            "estimated_diameter_min": 0.0075492874,
            "estimated_diameter_max": 0.0168807197
        },
        "feet": {
            "estimated_diameter_min": 39.8602508817,
            "estimated_diameter_max": 89.1302305717
        }
    },
    "is_potentially_hazardous_asteroid": false,
    "close_approach_data": [
        {
            "close_approach_date": "2015-09-07",
            "close_approach_date_full": "2015-Sep-07 17:58",
            "epoch_date_close_approach": 1441648680000,
            "relative_velocity": {
                "kilometers_per_second": "8.0887368746",
                "kilometers_per_hour": "29119.4527484721",
                "miles_per_hour": "18093.6955147381"
            },
            "miss_distance": {
                "astronomical": "0.0163818512",
                "lunar": "6.3725401168",
                "kilometers": "2450690.046176944",
                "miles": "1522788.1820680672"
            },
            "orbiting_body": "Earth"
        }
    ],
    "orbital_data": {
        "orbit_id": "6",
        "orbit_determination_date": "2019-07-17 06:10:52",
        "first_observation_date": "2015-09-05",
        "last_observation_date": "2015-09-09",
        "data_arc_in_days": 4,
        "observations_used": 70,
        "orbit_uncertainty": "7",
        "minimum_orbit_intersection": ".023946",
        "jupiter_tisserand_invariant": "3.211",
        "epoch_osculation": "2459000.5",
        "eccentricity": ".5862706173184343",
        "semi_major_axis": "2.483015221455533",
        "inclination": "4.490468727847985",
        "ascending_node_longitude": "341.4219966953173",
        "orbital_period": "1429.116059909875",
        "perihelion_distance": "1.027296354761729",
        "perihelion_argument": "11.23138625976281",
        "aphelion_distance": "3.938734088149338",
        "perihelion_time": "2458707.387267249503",
        "mean_anomaly": "73.83625917466303",
        "mean_motion": ".251903963644984",
        "equinox": "J2000",
        "orbit_class": {
            "orbit_class_type": "AMO",
            "orbit_class_description": "Near-Earth asteroid orbits similar to that of 1221 Amor",
            "orbit_class_range": "1.017 AU < q (perihelion) < 1.3 AU"
        }
    },
    "is_sentry_object": false
}